[{"OBJECT_NAME":"STARLINK-30592","OBJECT_ID":"2023-161F","EPOCH":"2025-08-17T10:48:05.013792","MEAN_MOTION":15.30189383,"ECCENTRICITY":0.000112,"INCLINATION":53.1621,"RA_OF_ASC_NODE":34.0606,"ARG_OF_PERICENTER":87.2253,"MEAN_ANOMALY":272.8876,"EPHEMERIS_TYPE":0,"CLASSIFICATION_TYPE":"U","NORAD_CAT_ID":58102,"ELEMENT_SET_NO":999,"REV_AT_EPOCH":10315,"BSTAR":1.2486e-5,"MEAN_MOTION_DOT":1.1e-7,"MEAN_MOTION_DDOT":0},{"OBJECT_NAME":"STARLINK-30589","OBJECT_ID":"2023-161G","EPOCH":"2025-08-17T11:45:46.952064","MEAN_MOTION":15.30192436,"ECCENTRICITY":4.49e-5,"INCLINATION":53.1594,"RA_OF_ASC_NODE":34.1131,"ARG_OF_PERICENTER":59.1214,"MEAN_ANOMALY":300.9831,"EPHEMERIS_TYPE":0,"CLASSIFICATION_TYPE":"U","NORAD_CAT_ID":58103,"ELEMENT_SET_NO":999,"REV_AT_EPOCH":10315,"BSTAR":-1.4342e-6,"MEAN_MOTION_DOT":-4.01e-6,"MEAN_MOTION_DDOT":0},{"OBJECT_NAME":"STARLINK-30617","OBJECT_ID":"2023-161H","EPOCH":"2025-08-17T10:16:16.460256","MEAN_MOTION":15.30198632,"ECCENTRICITY":0.0001081,"INCLINATION":53.1538,"RA_OF_ASC_NODE":34.4402,"ARG_OF_PERICENTER":99.0271,"MEAN_ANOMALY":261.0852,"EPHEMERIS_TYPE":0,"CLASSIFICATION_TYPE":"U","NORAD_CAT_ID":58104,"ELEMENT_SET_NO":999,"REV_AT_EPOCH":10314,"BSTAR":-2.1342e-5,"MEAN_MOTION_DOT":-9.91e-6,"MEAN_MOTION_DDOT":0},{"OBJECT_NAME":"STARLINK-30616","OBJECT_ID":"2023-161J","EPOCH":"2025-08-17T13:55:21.270720","MEAN_MOTION":15.30193181,"ECCENTRICITY":0.0001252,"INCLINATION":53.1617,"RA_OF_ASC_NODE":20.5006,"ARG_OF_PERICENTER":77.2365,"MEAN_ANOMALY":282.8776,"EPHEMERIS_TYPE":0,"CLASSIFICATION_TYPE":"U","NORAD_CAT_ID":58105,"ELEMENT_SET_NO":999,"REV_AT_EPOCH":10334,"BSTAR":3.26e-5,"MEAN_MOTION_DOT":6.06e-6,"MEAN_MOTION_DDOT":0},{"OBJECT_NAME":"STARLINK-30612","OBJECT_ID":"2023-161K","EPOCH":"2025-08-17T14:05:59.557632","MEAN_MOTION":15.30176975,"ECCENTRICITY":6.19e-5,"INCLINATION":53.1597,"RA_OF_ASC_NODE":20.5576,"ARG_OF_PERICENTER":69.2164,"MEAN_ANOMALY":290.8902,"EPHEMERIS_TYPE":0,"CLASSIFICATION_TYPE":"U","NORAD_CAT_ID":58106,"ELEMENT_SET_NO":999,"REV_AT_EPOCH":10335,"BSTAR":0.00025969,"MEAN_MOTION_DOT":7.335e-5,"MEAN_MOTION_DDOT":0},{"OBJECT_NAME":"STARLINK-30421","OBJECT_ID":"2023-161L","EPOCH":"2025-08-17T14:13:35.048928","MEAN_MOTION":15.30190151,"ECCENTRICITY":9.16e-5,"INCLINATION":53.1573,"RA_OF_ASC_NODE":20.5572,"ARG_OF_PERICENTER":61.5317,"MEAN_ANOMALY":298.5776,"EPHEMERIS_TYPE":0,"CLASSIFICATION_TYPE":"U","NORAD_CAT_ID":58107,"ELEMENT_SET_NO":999,"REV_AT_EPOCH":10335,"BSTAR":1.5151e-5,"MEAN_MOTION_DOT":9.0e-7,"MEAN_MOTION_DDOT":0},{"OBJECT_NAME":"STARLINK-30611","OBJECT_ID":"2023-161M","EPOCH":"2025-08-17T14:43:58.532160","MEAN_MOTION":15.30190143,"ECCENTRICITY":0.000113,"INCLINATION":53.1618,"RA_OF_ASC_NODE":20.6668,"ARG_OF_PERICENTER":93.2239,"MEAN_ANOMALY":266.8891,"EPHEMERIS_TYPE":0,"CLASSIFICATION_TYPE":"U","NORAD_CAT_ID":58108,"ELEMENT_SET_NO":999,"REV_AT_EPOCH":10335,"BSTAR":1.3014e-5,"MEAN_MOTION_DOT":2.6e-7,"MEAN_MOTION_DDOT":0},{"OBJECT_NAME":"STARLINK-30606","OBJECT_ID":"2023-161N","EPOCH":"2025-08-16T17:53:14.972352","MEAN_MOTION":15.30194319,"ECCENTRICITY":9.95e-5,"INCLINATION":53.1607,"RA_OF_ASC_NODE":37.4815,"ARG_OF_PERICENTER":79.1934,"MEAN_ANOMALY":280.9179,"EPHEMERIS_TYPE":0,"CLASSIFICATION_TYPE":"U","NORAD_CAT_ID":58109,"ELEMENT_SET_NO":999,"REV_AT_EPOCH":10304,"BSTAR":1.3591e-5,"MEAN_MOTION_DOT":4.3e-7,"MEAN_MOTION_DDOT":0},{"OBJECT_NAME":"STARLINK-30596","OBJECT_ID":"2023-161P","EPOCH":"2025-08-17T10:34:24.581856","MEAN_MOTION":15.3019142,"ECCENTRICITY":0.0001341,"INCLINATION":53.1621,"RA_OF_ASC_NODE":34.0014,"ARG_OF_PERICENTER":96.5554,"MEAN_ANOMALY":263.5599,"EPHEMERIS_TYPE":0,"CLASSIFICATION_TYPE":"U","NORAD_CAT_ID":58110,"ELEMENT_SET_NO":999,"REV_AT_EPOCH":10315,"BSTAR":4.8248e-6,"MEAN_MOTION_DOT":-2.16e-6,"MEAN_MOTION_DDOT":0},{"OBJECT_NAME":"STARLINK-30595","OBJECT_ID":"2023-161Q","EPOCH":"2025-08-17T14:34:10.824672","MEAN_MOTION":15.30193091,"ECCENTRICITY":9.85e-5,"INCLINATION":53.1613,"RA_OF_ASC_NODE":33.6194,"ARG_OF_PERICENTER":77.8801,"MEAN_ANOMALY":282.231,"EPHEMERIS_TYPE":0,"CLASSIFICATION_TYPE":"U","NORAD_CAT_ID":58111,"ELEMENT_SET_NO":999,"REV_AT_EPOCH":10317,"BSTAR":-7.5628e-6,"MEAN_MOTION_DOT":-5.83e-6,"MEAN_MOTION_DDOT":0},{"OBJECT_NAME":"STARLINK-30593","OBJECT_ID":"2023-161R","EPOCH":"2025-08-17T14:29:36.928896","MEAN_MOTION":15.30197219,"ECCENTRICITY":5.65e-5,"INCLINATION":53.161,"RA_OF_ASC_NODE":33.5948,"ARG_OF_PERICENTER":54.4239,"MEAN_ANOMALY":305.6814,"EPHEMERIS_TYPE":0,"CLASSIFICATION_TYPE":"U","NORAD_CAT_ID":58112,"ELEMENT_SET_NO":999,"REV_AT_EPOCH":10317,"BSTAR":2.9839e-5,"MEAN_MOTION_DOT":5.25e-6,"MEAN_MOTION_DDOT":0},{"OBJECT_NAME":"STARLINK-30353","OBJECT_ID":"2023-161S","EPOCH":"2025-08-17T14:43:18.269760","MEAN_MOTION":15.30183711,"ECCENTRICITY":0.0001558,"INCLINATION":53.1641,"RA_OF_ASC_NODE":33.661,"ARG_OF_PERICENTER":99.2859,"MEAN_ANOMALY":260.8318,"EPHEMERIS_TYPE":0,"CLASSIFICATION_TYPE":"U","NORAD_CAT_ID":58113,"ELEMENT_SET_NO":999,"REV_AT_EPOCH":10317,"BSTAR":-4.3104e-5,"MEAN_MOTION_DOT":-1.635e-5,"MEAN_MOTION_DDOT":0},{"OBJECT_NAME":"STARLINK-30572","OBJECT_ID":"2023-161T","EPOCH":"2025-08-17T14:25:06.166848","MEAN_MOTION":15.30169048,"ECCENTRICITY":0.000106,"INCLINATION":53.1615,"RA_OF_ASC_NODE":33.5746,"ARG_OF_PERICENTER":74.8204,"MEAN_ANOMALY":285.2914,"EPHEMERIS_TYPE":0,"CLASSIFICATION_TYPE":"U","NORAD_CAT_ID":58114,"ELEMENT_SET_NO":999,"REV_AT_EPOCH":10317,"BSTAR":-8.0403e-5,"MEAN_MOTION_DOT":-2.737e-5,"MEAN_MOTION_DDOT":0},{"OBJECT_NAME":"STARLINK-30580","OBJECT_ID":"2023-161U","EPOCH":"2025-08-17T04:22:44.705568","MEAN_MOTION":15.3018012,"ECCENTRICITY":0.0001033,"INCLINATION":53.1602,"RA_OF_ASC_NODE":35.2145,"ARG_OF_PERICENTER":99.7263,"MEAN_ANOMALY":260.3855,"EPHEMERIS_TYPE":0,"CLASSIFICATION_TYPE":"U","NORAD_CAT_ID":58115,"ELEMENT_SET_NO":999,"REV_AT_EPOCH":10311,"BSTAR":7.0639e-5,"MEAN_MOTION_DOT":1.732e-5,"MEAN_MOTION_DDOT":0},{"OBJECT_NAME":"STARLINK-30493","OBJECT_ID":"2023-161V","EPOCH":"2025-08-17T14:38:45.066912","MEAN_MOTION":15.3020029,"ECCENTRICITY":0.0001402,"INCLINATION":53.1617,"RA_OF_ASC_NODE":33.639,"ARG_OF_PERICENTER":79.1955,"MEAN_ANOMALY":280.9203,"EPHEMERIS_TYPE":0,"CLASSIFICATION_TYPE":"U","NORAD_CAT_ID":58116,"ELEMENT_SET_NO":999,"REV_AT_EPOCH":10317,"BSTAR":1.4845e-6,"MEAN_MOTION_DOT":-3.15e-6,"MEAN_MOTION_DDOT":0},{"OBJECT_NAME":"STARLINK-30601","OBJECT_ID":"2023-161W","EPOCH":"2025-08-17T14:47:51.297216","MEAN_MOTION":15.30189603,"ECCENTRICITY":0.0001007,"INCLINATION":53.1606,"RA_OF_ASC_NODE":33.6763,"ARG_OF_PERICENTER":75.0746,"MEAN_ANOMALY":285.0366,"EPHEMERIS_TYPE":0,"CLASSIFICATION_TYPE":"U","NORAD_CAT_ID":58117,"ELEMENT_SET_NO":999,"REV_AT_EPOCH":10317,"BSTAR":5.0826e-5,"MEAN_MOTION_DOT":1.146e-5,"MEAN_MOTION_DDOT":0},{"OBJECT_NAME":"STARLINK-30795","OBJECT_ID":"2023-162A","EPOCH":"2025-08-17T11:57:44.572320","MEAN_MOTION":15.02529298,"ECCENTRICITY":6.96e-5,"INCLINATION":43.0018,"RA_OF_ASC_NODE":162.6738,"ARG_OF_PERICENTER":276.0624,"MEAN_ANOMALY":84.0139,"EPHEMERIS_TYPE":0,"CLASSIFICATION_TYPE":"U","NORAD_CAT_ID":58118,"ELEMENT_SET_NO":999,"REV_AT_EPOCH":10158,"BSTAR":7.3351e-5,"MEAN_MOTION_DOT":7.87e-6,"MEAN_MOTION_DDOT":0},{"OBJECT_NAME":"STARLINK-30765","OBJECT_ID":"2023-162B","EPOCH":"2025-08-17T12:23:18.710592","MEAN_MOTION":15.02533091,"ECCENTRICITY":0.0001127,"INCLINATION":43.0037,"RA_OF_ASC_NODE":162.7864,"ARG_OF_PERICENTER":265.3874,"MEAN_ANOMALY":94.684,"EPHEMERIS_TYPE":0,"CLASSIFICATION_TYPE":"U","NORAD_CAT_ID":58119,"ELEMENT_SET_NO":999,"REV_AT_EPOCH":10158,"BSTAR":6.9148e-6,"MEAN_MOTION_DOT":-1.1e-6,"MEAN_MOTION_DDOT":0},{"OBJECT_NAME":"STARLINK-30768","OBJECT_ID":"2023-162C","EPOCH":"2025-08-17T02:18:35.119584","MEAN_MOTION":15.02535854,"ECCENTRICITY":0.0001441,"INCLINATION":43.0052,"RA_OF_ASC_NODE":164.8155,"ARG_OF_PERICENTER":271.3408,"MEAN_ANOMALY":88.7269,"EPHEMERIS_TYPE":0,"CLASSIFICATION_TYPE":"U","NORAD_CAT_ID":58120,"ELEMENT_SET_NO":999,"REV_AT_EPOCH":10152,"BSTAR":8.6839e-5,"MEAN_MOTION_DOT":9.7e-6,"MEAN_MOTION_DDOT":0},{"OBJECT_NAME":"STARLINK-30799","OBJECT_ID":"2023-162D","EPOCH":"2025-08-17T12:21:43.082208","MEAN_MOTION":15.0253171,"ECCENTRICITY":1.24e-5,"INCLINATION":43.0037,"RA_OF_ASC_NODE":162.776,"ARG_OF_PERICENTER":265.6861,"MEAN_ANOMALY":94.3968,"EPHEMERIS_TYPE":0,"CLASSIFICATION_TYPE":"U","NORAD_CAT_ID":58121,"ELEMENT_SET_NO":999,"REV_AT_EPOCH":10158,"BSTAR":1.063e-5,"MEAN_MOTION_DOT":-6.0e-7,"MEAN_MOTION_DDOT":0},{"OBJECT_NAME":"STARLINK-30759","OBJECT_ID":"2023-162E","EPOCH":"2025-08-17T05:26:50.279712","MEAN_MOTION":15.0253271,"ECCENTRICITY":9.83e-5,"INCLINATION":43.0029,"RA_OF_ASC_NODE":164.0728,"ARG_OF_PERICENTER":265.0842,"MEAN_ANOMALY":94.9888,"EPHEMERIS_TYPE":0,"CLASSIFICATION_TYPE":"U","NORAD_CAT_ID":58122,"ELEMENT_SET_NO":999,"REV_AT_EPOCH":10155,"BSTAR":1.8973e-5,"MEAN_MOTION_DOT":5.3e-7,"MEAN_MOTION_DDOT":0},{"OBJECT_NAME":"STARLINK-30781","OBJECT_ID":"2023-162F","EPOCH":"2025-08-17T05:25:14.296224","MEAN_MOTION":15.02534596,"ECCENTRICITY":8.59e-5,"INCLINATION":43.0029,"RA_OF_ASC_NODE":164.0619,"ARG_OF_PERICENTER":261.3537,"MEAN_ANOMALY":98.7208,"EPHEMERIS_TYPE":0,"CLASSIFICATION_TYPE":"U","NORAD_CAT_ID":58123,"ELEMENT_SET_NO":999,"REV_AT_EPOCH":10154,"BSTAR":5.2583e-5,"MEAN_MOTION_DOT":5.07e-6,"MEAN_MOTION_DDOT":0},{"OBJECT_NAME":"STARLINK-30754","OBJECT_ID":"2023-162G","EPOCH":"2025-08-17T12:16:56.825184","MEAN_MOTION":15.02520676,"ECCENTRICITY":0.0001181,"INCLINATION":43.002,"RA_OF_ASC_NODE":162.7489,"ARG_OF_PERICENTER":272.157,"MEAN_ANOMALY":87.9138,"EPHEMERIS_TYPE":0,"CLASSIFICATION_TYPE":"U","NORAD_CAT_ID":58124,"ELEMENT_SET_NO":999,"REV_AT_EPOCH":9579,"BSTAR":-4.6601e-5,"MEAN_MOTION_DOT":-8.33e-6,"MEAN_MOTION_DDOT":0},{"OBJECT_NAME":"STARLINK-30766","OBJECT_ID":"2023-162H","EPOCH":"2025-08-17T05:20:26.025216","MEAN_MOTION":15.02541571,"ECCENTRICITY":0.0001079,"INCLINATION":43.0012,"RA_OF_ASC_NODE":164.038,"ARG_OF_PERICENTER":268.1983,"MEAN_ANOMALY":91.8736,"EPHEMERIS_TYPE":0,"CLASSIFICATION_TYPE":"U","NORAD_CAT_ID":58125,"ELEMENT_SET_NO":999,"REV_AT_EPOCH":10154,"BSTAR":0.00011608,"MEAN_MOTION_DOT":1.365e-5,"MEAN_MOTION_DDOT":0}]
